start=new Date('2023-02-28T00:00:00.000Z').valueOf();
sats=[{"ECCENTRICITY":"0.00012820","TIME_SYSTEM":"UTC","EPOCH":"2023-02-27T16:11:04.809408","ELEMENT_SET_NO":"999","MEAN_MOTION":"15.06414984","TLE_LINE2":"2 47885  53.0512 211.7152 0001282  92.4124 267.7012 15.06414984109438","COUNTRY_CODE":"US","EPHEMERIS_TYPE":"0","APOAPSIS":"548.055","PERIOD":"95.591","SEMIMAJOR_AXIS":"6925.303","RA_OF_ASC_NODE":"211.7152","TLE_LINE1":"1 47885U 21021AB  23058.67436122  .00006951  00000-0  48485-3 0  9990","SITE":"AFETR","MEAN_ANOMALY":"267.7012","DECAY_DATE":null,"FILE":"3846812","OBJECT_NAME":"STARLINK-2344","OBJECT_ID":"2021-021AB","MEAN_MOTION_DDOT":"0.0000000000000","MEAN_MOTION_DOT":"0.00006951","BSTAR":"0.00048485000000","MEAN_ELEMENT_THEORY":"SGP4","REF_FRAME":"TEME","CENTER_NAME":"EARTH","NORAD_CAT_ID":"47885","INCLINATION":"53.0512","ARG_OF_PERICENTER":"92.4124","REV_AT_EPOCH":"10943","OBJECT_TYPE":"PAYLOAD","CLASSIFICATION_TYPE":"U","LAUNCH_DATE":"2021-03-14","PERIAPSIS":"546.280","GP_ID":"227193121","RCS_SIZE":"LARGE"},{"REF_FRAME":"TEME","MEAN_ELEMENT_THEORY":"SGP4","CENTER_NAME":"EARTH","BSTAR":"0.01219100000000","NORAD_CAT_ID":"47886","OBJECT_NAME":"STARLINK-2345","MEAN_MOTION_DOT":"0.00240894","MEAN_MOTION_DDOT":"0.0000000000000","OBJECT_ID":"2021-021AC","PERIAPSIS":"518.303","LAUNCH_DATE":"2021-03-14","RCS_SIZE":"LARGE","GP_ID":"227193371","OBJECT_TYPE":"PAYLOAD","REV_AT_EPOCH":"10948","ARG_OF_PERICENTER":"319.9892","INCLINATION":"53.0492","CLASSIFICATION_TYPE":"U","TLE_LINE2":"2 47886  53.0492 198.0872 0001931 319.9892  40.0959 15.15443283109483","MEAN_MOTION":"15.15443283","APOAPSIS":"520.967","EPHEMERIS_TYPE":"0","COUNTRY_CODE":"US","ECCENTRICITY":"0.00019310","EPOCH":"2023-02-27T18:22:13.277280","ELEMENT_SET_NO":"999","TIME_SYSTEM":"UTC","MEAN_ANOMALY":"40.0959","SITE":"AFETR","FILE":"3846812","DECAY_DATE":null,"PERIOD":"95.022","TLE_LINE1":"1 47886U 21021AC  23058.76543145  .00240894  00000-0  12191-1 0  9994","RA_OF_ASC_NODE":"198.0872","SEMIMAJOR_AXIS":"6897.770"},{"FILE":"3846812","DECAY_DATE":null,"MEAN_ANOMALY":"281.0072","SITE":"AFETR","TLE_LINE1":"1 47887U 21021AD  23058.76510300  .00040150  00000-0  26931-2 0  9993","SEMIMAJOR_AXIS":"6925.098","RA_OF_ASC_NODE":"206.3065","PERIOD":"95.587","COUNTRY_CODE":"US","EPHEMERIS_TYPE":"0","APOAPSIS":"547.797","TLE_LINE2":"2 47887  53.0510 206.3065 0001204  79.1052 281.0072 15.06481838109366","MEAN_MOTION":"15.06481838","TIME_SYSTEM":"UTC","EPOCH":"2023-02-27T18:21:44.899200","ELEMENT_SET_NO":"999","ECCENTRICITY":"0.00012040","GP_ID":"227194123","RCS_SIZE":"LARGE","LAUNCH_DATE":"2021-03-14","PERIAPSIS":"546.129","CLASSIFICATION_TYPE":"U","REV_AT_EPOCH":"10936","OBJECT_TYPE":"PAYLOAD","INCLINATION":"53.0510","ARG_OF_PERICENTER":"79.1052","NORAD_CAT_ID":"47887","REF_FRAME":"TEME","CENTER_NAME":"EARTH","MEAN_ELEMENT_THEORY":"SGP4","BSTAR":"0.00269310000000","MEAN_MOTION_DOT":"0.00040150","OBJECT_ID":"2021-021AD","MEAN_MOTION_DDOT":"0.0000000000000","OBJECT_NAME":"STARLINK-2346"},{"TLE_LINE1":"1 47888U 21021AE  23058.78815619  .00012797  00000-0  87548-3 0  9995","RA_OF_ASC_NODE":"196.2016","SEMIMAJOR_AXIS":"6925.221","PERIOD":"95.590","FILE":"3846812","DECAY_DATE":null,"MEAN_ANOMALY":"254.7647","SITE":"AFETR","EPOCH":"2023-02-27T18:54:56.694816","ELEMENT_SET_NO":"999","TIME_SYSTEM":"UTC","ECCENTRICITY":"0.00014230","APOAPSIS":"548.072","EPHEMERIS_TYPE":"0","COUNTRY_CODE":"US","TLE_LINE2":"2 47888  53.0519 196.2016 0001423 105.3499 254.7647 15.06441465109513","MEAN_MOTION":"15.06441465","CLASSIFICATION_TYPE":"U","OBJECT_TYPE":"PAYLOAD","REV_AT_EPOCH":"10951","INCLINATION":"53.0519","ARG_OF_PERICENTER":"105.3499","GP_ID":"227193874","RCS_SIZE":"LARGE","LAUNCH_DATE":"2021-03-14","PERIAPSIS":"546.101","MEAN_MOTION_DOT":"0.00012797","MEAN_MOTION_DDOT":"0.0000000000000","OBJECT_ID":"2021-021AE","OBJECT_NAME":"STARLINK-2348","NORAD_CAT_ID":"47888","CENTER_NAME":"EARTH","MEAN_ELEMENT_THEORY":"SGP4","REF_FRAME":"TEME","BSTAR":"0.00087548000000"},{"DECAY_DATE":null,"FILE":"3846812","SITE":"AFETR","MEAN_ANOMALY":"249.6457","RA_OF_ASC_NODE":"195.8528","SEMIMAJOR_AXIS":"6925.203","TLE_LINE1":"1 47889U 21021AF  23058.86555596  .00017311  00000-0  11767-2 0  9996","PERIOD":"95.589","APOAPSIS":"548.074","COUNTRY_CODE":"US","EPHEMERIS_TYPE":"0","MEAN_MOTION":"15.06447582","TLE_LINE2":"2 47889  53.0522 195.8528 0001453 110.4688 249.6457 15.06447582109575","ELEMENT_SET_NO":"999","EPOCH":"2023-02-27T20:46:24.034944","TIME_SYSTEM":"UTC","ECCENTRICITY":"0.00014530","RCS_SIZE":"LARGE","GP_ID":"227192622","LAUNCH_DATE":"2021-03-14","PERIAPSIS":"546.061","CLASSIFICATION_TYPE":"U","INCLINATION":"53.0522","ARG_OF_PERICENTER":"110.4688","OBJECT_TYPE":"PAYLOAD","REV_AT_EPOCH":"10957","NORAD_CAT_ID":"47889","BSTAR":"0.00117670000000","REF_FRAME":"TEME","MEAN_ELEMENT_THEORY":"SGP4","CENTER_NAME":"EARTH","MEAN_MOTION_DDOT":"0.0000000000000","OBJECT_ID":"2021-021AF","MEAN_MOTION_DOT":"0.00017311","OBJECT_NAME":"STARLINK-2349"},{"TIME_SYSTEM":"UTC","EPOCH":"2023-02-27T22:00:01.999584","ELEMENT_SET_NO":"999","ECCENTRICITY":"0.00038980","COUNTRY_CODE":"US","EPHEMERIS_TYPE":"0","APOAPSIS":"318.236","MEAN_MOTION":"15.85248779","TLE_LINE2":"2 47890  53.0306  43.6861 0003898 126.4164 319.1398 15.85248779  1301","SEMIMAJOR_AXIS":"6693.761","RA_OF_ASC_NODE":"43.6861","TLE_LINE1":"1 47890U 21021AG  23058.91668981  .00488035  00000-0  19046-2 0  9990","PERIOD":"90.837","DECAY_DATE":null,"FILE":"3846812","SITE":"AFETR","MEAN_ANOMALY":"319.1398","OBJECT_ID":"2021-021AG","MEAN_MOTION_DDOT":"0.0000000000000","MEAN_MOTION_DOT":"0.00488035","OBJECT_NAME":"STARLINK-2350","NORAD_CAT_ID":"47890","BSTAR":"0.00190460000000","REF_FRAME":"TEME","MEAN_ELEMENT_THEORY":"SGP4","CENTER_NAME":"EARTH","CLASSIFICATION_TYPE":"U","INCLINATION":"53.0306","ARG_OF_PERICENTER":"126.4164","REV_AT_EPOCH":"130","OBJECT_TYPE":"PAYLOAD","RCS_SIZE":"LARGE","GP_ID":"227192872","PERIAPSIS":"313.017","LAUNCH_DATE":"2021-03-14"},{"LAUNCH_DATE":"2021-03-14","PERIAPSIS":"546.205","GP_ID":"227193624","RCS_SIZE":"LARGE","REV_AT_EPOCH":"10951","OBJECT_TYPE":"PAYLOAD","INCLINATION":"53.0518","ARG_OF_PERICENTER":"78.7837","CLASSIFICATION_TYPE":"U","MEAN_ELEMENT_THEORY":"SGP4","REF_FRAME":"TEME","CENTER_NAME":"EARTH","BSTAR":"0.00548430000000","NORAD_CAT_ID":"47891","OBJECT_NAME":"STARLINK-2351","MEAN_MOTION_DOT":"0.00082572","OBJECT_ID":"2021-021AH","MEAN_MOTION_DDOT":"0.0000000000000","MEAN_ANOMALY":"281.3270","SITE":"AFETR","FILE":"3846812","DECAY_DATE":null,"PERIOD":"95.586","TLE_LINE1":"1 47891U 21021AH  23058.67297275  .00082572  00000-0  54843-2 0  9998","SEMIMAJOR_AXIS":"6925.069","RA_OF_ASC_NODE":"206.7203","TLE_LINE2":"2 47891  53.0518 206.7203 0001053  78.7837 281.3270 15.06491306109516","MEAN_MOTION":"15.06491306","EPHEMERIS_TYPE":"0","COUNTRY_CODE":"US","APOAPSIS":"547.663","ECCENTRICITY":"0.00010530","TIME_SYSTEM":"UTC","EPOCH":"2023-02-27T16:09:04.845600","ELEMENT_SET_NO":"999"},{"APOAPSIS":"514.090","COUNTRY_CODE":"US","EPHEMERIS_TYPE":"0","TLE_LINE2":"2 47892  53.0525 179.2958 0001071  70.9226 289.1883 15.17516377109741","MEAN_MOTION":"15.17516377","EPOCH":"2023-02-27T16:01:06.436704","ELEMENT_SET_NO":"999","TIME_SYSTEM":"UTC","ECCENTRICITY":"0.00010710","FILE":"3846812","DECAY_DATE":null,"MEAN_ANOMALY":"289.1883","SITE":"AFETR","TLE_LINE1":"1 47892U 21021AJ  23058.66743561  .00125457  00000-0  60895-2 0  9996","RA_OF_ASC_NODE":"179.2958","SEMIMAJOR_AXIS":"6891.487","PERIOD":"94.892","NORAD_CAT_ID":"47892","REF_FRAME":"TEME","MEAN_ELEMENT_THEORY":"SGP4","CENTER_NAME":"EARTH","BSTAR":"0.00608950000000","MEAN_MOTION_DOT":"0.00125457","MEAN_MOTION_DDOT":"0.0000000000000","OBJECT_ID":"2021-021AJ","OBJECT_NAME":"STARLINK-2352","RCS_SIZE":"LARGE","GP_ID":"227194374","PERIAPSIS":"512.614","LAUNCH_DATE":"2021-03-14","CLASSIFICATION_TYPE":"U","OBJECT_TYPE":"PAYLOAD","REV_AT_EPOCH":"10974","INCLINATION":"53.0525","ARG_OF_PERICENTER":"70.9226"},{"CLASSIFICATION_TYPE":"U","ARG_OF_PERICENTER":"70.2760","INCLINATION":"53.0498","REV_AT_EPOCH":"10945","OBJECT_TYPE":"PAYLOAD","RCS_SIZE":"LARGE","GP_ID":"227193122","PERIAPSIS":"545.706","LAUNCH_DATE":"2021-03-14","OBJECT_ID":"2021-021AL","MEAN_MOTION_DDOT":"0.0000000000000","MEAN_MOTION_DOT":"0.00045032","OBJECT_NAME":"STARLINK-2354","NORAD_CAT_ID":"47894","BSTAR":"0.00301920000000","MEAN_ELEMENT_THEORY":"SGP4","REF_FRAME":"TEME","CENTER_NAME":"EARTH","SEMIMAJOR_AXIS":"6925.214","RA_OF_ASC_NODE":"196.3185","TLE_LINE1":"1 47894U 21021AL  23058.76235953  .00045032  00000-0  30192-2 0  9997","PERIOD":"95.589","DECAY_DATE":null,"FILE":"3846812","SITE":"AFETR","MEAN_ANOMALY":"289.8443","TIME_SYSTEM":"UTC","EPOCH":"2023-02-27T18:17:47.863392","ELEMENT_SET_NO":"999","ECCENTRICITY":"0.00019820","COUNTRY_CODE":"US","EPHEMERIS_TYPE":"0","APOAPSIS":"548.452","MEAN_MOTION":"15.06443903","TLE_LINE2":"2 47894  53.0498 196.3185 0001982  70.2760 289.8443 15.06443903109450"},{"MEAN_MOTION_DDOT":"0.0000000000000","OBJECT_ID":"2021-021AM","MEAN_MOTION_DOT":"0.00008545","OBJECT_NAME":"STARLINK-2355","NORAD_CAT_ID":"47895","BSTAR":"0.00059112000000","MEAN_ELEMENT_THEORY":"SGP4","CENTER_NAME":"EARTH","REF_FRAME":"TEME","CLASSIFICATION_TYPE":"U","INCLINATION":"53.0552","ARG_OF_PERICENTER":"99.6545","OBJECT_TYPE":"PAYLOAD","REV_AT_EPOCH":"10946","GP_ID":"227193372","RCS_SIZE":"LARGE","LAUNCH_DATE":"2021-03-14","PERIAPSIS":"546.080","ELEMENT_SET_NO":"999","EPOCH":"2023-02-27T15:22:36.194016","TIME_SYSTEM":"UTC","ECCENTRICITY":"0.00014240","APOAPSIS":"548.052","EPHEMERIS_TYPE":"0","COUNTRY_CODE":"US","MEAN_MOTION":"15.06448141","TLE_LINE2":"2 47895  53.0552 196.8636 0001424  99.6545 260.4605 15.06448141109460","RA_OF_ASC_NODE":"196.8636","SEMIMAJOR_AXIS":"6925.201","TLE_LINE1":"1 47895U 21021AM  23058.64069669  .00008545  00000-0  59112-3 0  9996","PERIOD":"95.589","DECAY_DATE":null,"FILE":"3846812","SITE":"AFETR","MEAN_ANOMALY":"260.4605"}];
